GLOBALSTAR M067 [+]     
1 32263U 07048A   24023.48529000 -.00000078  00000+0  14263-3 0  9998
2 32263  51.9730  90.2430 0000311  12.8911  90.4096 12.40637532746095
GLOBALSTAR M070 [+]     
1 32264U 07048B   24024.13223472 -.00000045  00000+0  32620-3 0  9997
2 32264  51.9729 242.2953 0001342  70.3790  20.7631 12.62285592750233
GLOBALSTAR M066 [+]     
1 32265U 07048C   24023.53856406 -.00000068  00000+0  19740-3 0  9993
2 32265  51.9696 106.1373 0001281 168.9206 293.8412 12.62261617751445
GLOBALSTAR M068 [-]     
1 32266U 07048D   24023.40245536 -.00000058  00000+0  25413-3 0  9999
2 32266  51.9893  59.2367 0001204 108.5120 354.0489 12.62776986753026
GLOBALSTAR M079 [+]     
1 37188U 10054A   24023.92522163 -.00000067  00000+0  20428-3 0  9990
2 37188  52.0023 253.1076 0000716  70.8921  36.0191 12.62265997612015
GLOBALSTAR M074 [+]     
1 37189U 10054B   24023.95107080 -.00000056  00000+0  26565-3 0  9997
2 37189  51.9996 252.4311 0001008  72.8260  31.3145 12.62264785612695
GLOBALSTAR M076 [+]     
1 37190U 10054C   24023.81684512 -.00000058  00000+0  25364-3 0  9992
2 37190  52.0014 252.9671 0000860  40.8067  51.0411 12.62273716612687
GLOBALSTAR M077 [+]     
1 37191U 10054D   24023.80632163 -.00000085  00000+0  10696-3 0  9999
2 37191  52.0044 209.7054 0001102  84.9743  19.7253 12.62269051612699
